ZORKIY-2M
1 57177U 23091M   24349.15992269  .00008243  00000-0  48568-3 0  9998
2 57177  97.5904  39.7926 0015466 218.7641 141.2480 15.11755626 80647
CUBESX-HSE-3 (RS42S)
1 57178U 23091N   24349.20908236  .00011817  00000-0  63447-3 0  9990
2 57178  97.5914  40.7774 0014538 213.7224 146.3084 15.14994744 80705
PHI-DEMO
1 57181U 23091R   24349.15114088  .00005679  00000-0  36281-3 0  9997
2 57181  97.5890  38.6449 0015995 226.9722 133.0167 15.08936391 80571
MONITOR-3 (RS58S)
1 57180U 23091Q   24349.14584995  .00011046  00000-0  60989-3 0  9990
2 57180  97.5909  40.3569 0014935 215.1410 144.8838 15.14011245 80676
NORBY-2
1 57179U 23091P   24349.15455177  .00006801  00000-0  42317-3 0  9996
2 57179  97.5925  39.2200 0016203 218.6379 141.3692 15.09827587 80592
MONITOR-4 (RS57S)
1 57182U 23091S   24349.14596236  .00011112  00000-0  61340-3 0  9999
2 57182  97.5903  40.3189 0014959 215.9008 144.1220 15.14015308 80679
MONITOR-2 (RS39S)
1 57184U 23091U   24349.16223869  .00007696  00000-0  46001-3 0  9991
2 57184  97.5909  40.0315 0012498 210.6485 149.4016 15.11291653 80657
SVYATOBOR-1 (RS60S)
1 57187U 23091X   24349.12295317  .00009546  00000-0  52377-3 0  9996
2 57187  97.5908  41.0121 0011732 205.1435 154.9226 15.14313285 80719
VIZARD-METEO (RS38S)
1 57189U 23091Z   24349.17367672  .00014524  00000-0  73425-3 0  9996
2 57189  97.5899  41.9654 0010563 200.5319 159.5491 15.17113146 80780
NANOZOND-1 (RS49S)
1 57190U 23091AA  24349.16321269  .00024103  00000-0  10162-2 0  9991
2 57190  97.5866  43.4839 0008464 200.7416 159.3478 15.23283090 80893
SITRO-AIS-6 (CHIRKIN)
1 57192U 23091AC  24349.12485068  .00011152  00000-0  61032-3 0  9990
2 57192  97.5882  40.2227 0014758 220.6901 139.3228 15.14325071 80675
SITRO-AIS-8 (SHCHUKIN)
1 57193U 23091AD  24349.16355028  .00013684  00000-0  73136-3 0  9997
2 57193  97.5881  40.4665 0014405 221.5424 138.4715 15.15120053 80699
SITRO-AIS-7 (SHEFFER)
1 57194U 23091AE  24349.13780174  .00011599  00000-0  63637-3 0  9997
2 57194  97.5884  40.1966 0014575 221.2305 138.7827 15.14230387 80673
AVION KALUGA 650
1 57195U 23091AF  24349.17841162  .00007949  00000-0  46791-3 0  9993
2 57195  97.5917  40.4041 0011739 210.8999 149.1541 15.11845114 80676
YARILO 3
1 57198U 23091AJ  24349.12986244  .00061694  00000-0  16997-2 0  9993
2 57198  97.5887  46.5184 0007180 200.1663 159.9298 15.36894194 81066
SITRO-AIS-10 (KATYS)
1 57199U 23091AK  24349.21875942  .00013933  00000-0  69580-3 0  9996
2 57199  97.5897  42.0280 0010172 204.6597 155.4151 15.17555459 80791
SITRO-AIS-9 (BURDAEV)
1 57201U 23091AM  24349.15548750  .00014846  00000-0  74260-3 0  9992
2 57201  97.5893  41.9239 0010157 205.1363 154.9377 15.17483942 80783
UTMN-2 (RS27S)
1 57203U 23091AP  24349.11726545  .00012299  00000-0  64081-3 0  9990
2 57203  97.5898  41.5759 0010965 201.9043 158.1722 15.16086581 80753
SITRO-AIS-12 (FARTUSHNY)
1 57204U 23091AQ  24349.16075658  .00014494  00000-0  72107-3 0  9995
2 57204  97.5901  42.1351 0010211 199.0185 161.0668 15.17679356 80797
ARCCUBE-1 (RS25S)
1 57205U 23091AR  24349.16408145  .00031725  00000-0  12027-2 0  9997
2 57205  97.5816  44.0658 0008206 201.4709 158.6187 15.26789325 80948
AHMAT-1 (RS41S)
1 57206U 23091AS  24349.13234228  .00019571  00000-0  88191-3 0  9995
2 57206  97.5863  42.8543 0009067 204.5120 155.5686 15.21052040 80859
SITRO-AIS-11 (SMIRENNY)
1 57208U 23091AU  24349.13286381  .00014172  00000-0  70231-3 0  9992
2 57208  97.5897  42.1562 0010082 199.0986 160.9871 15.17820803 80793
KUZGTU-1 (RS47S)
1 57217U 23091AV  24349.11265764  .00012206  00000-0  66160-3 0  9994
2 57217  97.5885  40.4250 0014564 216.2463 143.7784 15.14646572 80682
STRATOSAT-TK1-A (RS45S)
1 57322U 23091AW  24349.09118401  .00045619  00000-0  15349-2 0  9999
2 57322  97.5848  44.1771 0010458 209.0791 150.9868 15.30597089 78810
STRATOSAT-TK1-E (RS52SE)
1 57323U 23091AX  24349.12712635  .00023077  00000-0  10260-2 0  9994
2 57323  97.5869  42.1661 0012515 215.0354 145.0059 15.21444440 78682
STRATOSAT-TK1-B (RS52SB)
1 57324U 23091AY  24349.11331731  .00044480  00000-0  15031-2 0  9990
2 57324  97.5849  44.1616 0010643 209.2611 150.8034 15.30460911 78817
STRATOSAT-TK1-G (RS52SG)
1 57325U 23091AZ  24348.92544961  .07773057  25212-5  29132-2 0  9990
2 57325  97.5468  50.9657 0008121 296.9957  63.0504 16.24350323 79243
STRATOSAT-TK1-D (RS52SD)
1 57326U 23091BA  24349.16761006  .00023102  00000-0  10378-2 0  9996
2 57326  97.5864  42.0936 0012563 215.1966 144.8440 15.21089172 78528
STRATOSAT-TK1-V (RS52SV)
1 57327U 23091BB  24349.16221719  .00044912  00000-0  15124-2 0  9995
2 57327  97.5855  44.2724 0010505 209.0264 151.0394 15.30573039 78668
VERONIKA
1 58261U 23174F   24349.07571963  .00043174  00000-0  11993-2 0  9993
2 58261  97.4414  63.7084 0008551 327.4511  32.6205 15.36719168 61173
ENSO
1 58470U 23185J   24349.15152931  .00032311  00000-0  91902-3 0  9996
2 58470  97.4035  55.1600 0009734   5.4803 354.6546 15.36033492 57634
HAYASAT-1
1 58471U 23185K   24349.14936995  .00062438  00000-0  12946-2 0  9999
2 58471  97.4007  56.6465 0007510 355.2217   4.8959 15.45488192 57738
METEOR M2-4
1 59051U 24039A   24349.16051738  .00000104  00000-0  66205-4 0  9999
2 59051  98.6247 306.8538 0006549 331.4807  28.6012 14.22313135 41077
SITRO-AIS-29
1 59052U 24039B   24349.13857418  .00062283  00000-0  12146-2 0  9995
2 59052  97.4085 311.9593 0007921 308.1150  51.9386 15.47275454 44211
SITRO-AIS-30
1 59053U 24039C   24349.16548975  .00059971  00000-0  11905-2 0  9996
2 59053  97.4087 311.9174 0008383 309.0198  51.0304 15.46764429 44208
SITRO-AIS-31
1 59054U 24039D   24349.13021683  .00063167  00000-0  12355-2 0  9998
2 59054  97.4086 311.9648 0008195 309.3178  50.7344 15.47182988 44223
SITRO-AIS-33
1 59055U 24039E   24349.17270731  .00061532  00000-0  11982-2 0  9992
2 59055  97.4087 312.0736 0007742 310.6691  49.3885 15.47322595 44221
SITRO-AIS-35
1 59056U 24039F   24349.16635822  .00061356  00000-0  11922-2 0  9996
2 59056  97.4087 312.0764 0007710 311.7198  48.3391 15.47386332 44222
SITRO-AIS-32
1 59057U 24039G   24349.13200757  .00060368  00000-0  11896-2 0  9991
2 59057  97.4092 311.9772 0008051 311.1691  48.8863 15.46979593 44211
SITRO-AIS-34
1 59058U 24039H   24349.10752670  .00060782  00000-0  11846-2 0  9990
2 59058  97.4087 312.0099 0007729 311.0736  48.9846 15.47301498 44216
SITRO-AIS-36
1 59059U 24039J   24349.15114838  .00057483  00000-0  11151-2 0  9997
2 59059  97.4085 312.0980 0007732 311.9119  48.1470 15.47451001 44224
SITRO-AIS-49
1 59060U 24039K   24349.16950742  .00058594  00000-0  11512-2 0  9997
2 59060  97.4092 312.0776 0007784 310.9263  49.1312 15.47076345 44223
SITRO-AIS-50
1 59062U 24039M   24349.18292310  .00064927  00000-0  12382-2 0  9994
2 59062  97.4083 312.2031 0007339 312.0014  48.0610 15.47914991 44232
SITRO-AIS-51
1 59061U 24039L   24349.18556325  .00065983  00000-0  12631-2 0  9992
2 59061  97.4087 312.2022 0007505 310.6709  49.3888 15.47800314 44239
SITRO-AIS-52
1 59063U 24039N   24349.16444826  .00062168  00000-0  11834-2 0  9990
2 59063  97.4089 312.2334 0007209 311.0637  48.9990 15.47981390 44238
ZORKIY-2M 2
1 59064U 24039P   24349.15598884  .00030477  00000-0  77650-3 0  9991
2 59064  97.4115 311.1898 0010125 305.6734  54.3569 15.39449462 44176
PARS-1
1 59065U 24039Q   24349.15596230  .00011267  00000-0  37382-3 0  9999
2 59065  97.4175 310.0801 0010705 297.6661  62.3493 15.31358591 44065
SITRO-AIS-25
1 59066U 24039R   24349.11731599  .00005299  00000-0  47057-3 0  9993
2 59066  95.3866 219.3841 0164791  82.5648 279.4264 14.86436581 42808
SITRO-AIS-26
1 59067U 24039S   24349.05889406  .00005088  00000-0  45331-3 0  9997
2 59067  95.3867 219.3296 0164965  82.8637 279.1309 14.86306146 42796
SITRO-AIS-27
1 59068U 24039T   24349.15790141  .00004772  00000-0  42291-3 0  9997
2 59068  95.3869 219.4602 0164336  82.1441 279.8400 14.86586176 42814
SITRO-AIS-28
1 59071U 24039U   24349.14981219  .00004968  00000-0  43989-3 0  9990
2 59071  95.3870 219.4707 0164194  82.1236 279.8587 14.86629946 42819
SONATE-2
1 59112U 24043Q   24348.57044946  .00017221  00000-0  65472-3 0  9991
2 59112  97.4951 111.6342 0013161  29.0245 331.1723 15.26772323 43091
HORS-1
1 57188U 23091Y   24349.12002311  .00009935  00000-0  54515-3 0  9995
2 57188  97.5887  40.8857 0011135 205.4377 154.6308 15.14303836 80713
HORS-2
1 57196U 23091AG  24349.14213924  .00011994  00000-0  62735-3 0  9991
2 57196  97.5906  41.5604 0010905 204.6242 155.4471 15.15955509 80753
ZORKIY-2M 6
1 59774U 24092B   24349.09503007  .00010841  00000-0  58718-3 0  9991
2 59774  97.6030  99.8676 0011028 300.2702  59.7438 15.14744303 31866
ZORKIY-2M 4
1 59775U 24092C   24349.19548695  .00012078  00000-0  64751-3 0  9993
2 59775  97.6158 100.4016 0011202 302.8837  57.1316 15.15080337 31897
SITRO-AIS-53
1 59776U 24092D   24348.56802801  .00014471  00000-0  77111-3 0  9999
2 59776  97.6110  99.4117 0010474 278.9222  81.0824 15.15258546 31783
SITRO-AIS-54
1 59777U 24092E   24348.89604511  .00014424  00000-0  76782-3 0  9995
2 59777  97.6108  99.7427 0010795 278.4135  81.5873 15.15291010 31830
SITRO-AIS-56
1 59778U 24092F   24348.55638078  .00013985  00000-0  74271-3 0  9996
2 59778  97.6101  99.4137 0011058 280.2129  79.7856 15.15380180 31787
RASSVET 1-4
1 59779U 24092G   24349.13177585  .00000467  00000-0  19251-3 0  9991
2 59779  98.6233  99.5435 0012703  32.6485 327.5481 14.31402033 30190
RASSVET 1-5
1 59780U 24092H   24349.13117681  .00000469  00000-0  19316-3 0  9998
2 59780  98.6232  99.5423 0012933  33.1706 327.0285 14.31401937 30194
RASSVET 1-6
1 59781U 24092J   24349.20010493  .00000479  00000-0  19712-3 0  9991
2 59781  98.6232  99.6134 0012699  32.6444 327.5522 14.31402275 30204
SITRO-AIS-55
1 59809U 24092K   24348.24670053  .00013491  00000-0  72176-3 0  9990
2 59809  97.6106  99.0529 0011041 280.6209  79.3779 15.15127060 31239
